0 FENGYUN 1C DEB
1 32458U 99025DBW 13281.08941907  .00001983  00000-0  79700-3 0  1595
2 32458 098.9798 017.5274 0069238 124.1070 236.6827 14.28005237325201
0 FENGYUN 1C DEB
1 32458U 99025DBW 13283.05130110  .00002030  00000-0  81423-3 0  1601
2 32458 098.9805 019.5469 0070962 118.6705 242.1879 14.28014409325487
0 FENGYUN 1C DEB
1 32458U 99025DBW 13289.49738658  .00002200  00000-0  88290-3 0  1626
2 32458 098.9752 026.1664 0066985 098.0278 262.9747 14.28047447326400
0 FENGYUN 1C DEB
1 32458U 99025DBW 13290.05788371  .00002225  00000-0  89182-3 0  1636
2 32458 098.9746 026.7412 0068131 097.2986 263.6206 14.28050805326480
0 FENGYUN 1C DEB
1 32458U 99025DBW 13291.03878763  .00002272  00000-0  90982-3 0  1643
2 32458 098.9752 027.7513 0068927 094.7456 266.1925 14.28056756326620
0 FENGYUN 1C DEB
1 32458U 99025DBW 13292.51013681  .00002308  00000-0  92358-3 0  1657
2 32458 098.9783 029.2633 0069425 093.3019 267.6622 14.28064613326832
0 FENGYUN 1C DEB
1 32458U 99025DBW 13295.03243105  .00002435  00000-0  97305-3 0  1662
2 32458 098.9837 031.8573 0069350 088.7285 272.3346 14.28080951327193
